$$SOE
2460721.500000000, A.D. 2025-Feb-15 00:00:00.0000, -6.058620378754618E+07, -5.480318849663017E+08, 2.267537610925058E+07,
2460728.500000000, A.D. 2025-Feb-22 00:00:00.0000, -5.207489229155906E+07, -5.490074811340045E+08, 2.240776958776423E+07,
2460735.500000000, A.D. 2025-Mar-01 00:00:00.0000, -4.354854279917574E+07, -5.498246252499959E+08, 2.213369293828931E+07,
2460742.500000000, A.D. 2025-Mar-08 00:00:00.0000, -3.500961846363153E+07, -5.504831360016797E+08, 2.185322719432271E+07,
2460749.500000000, A.D. 2025-Mar-15 00:00:00.0000, -2.646058185937688E+07, -5.509828536213160E+08, 2.156645428236771E+07,
2460756.500000000, A.D. 2025-Mar-22 00:00:00.0000, -1.790389755471278E+07, -5.513236394118959E+08, 2.127345727612484E+07,
2460763.500000000, A.D. 2025-Mar-29 00:00:00.0000, -9.342033316200484E+06, -5.515053775500655E+08, 2.097432034271583E+07,
2460770.500000000, A.D. 2025-Apr-05 00:00:00.0000, -7.774596190167940E+05, -5.515279760283715E+08, 2.066912860734373E+07,
2460777.500000000, A.D. 2025-Apr-12 00:00:00.0000, 7.787350611026727E+06, -5.513913666331812E+08, 2.035796812130454E+07,
2460784.500000000, A.D. 2025-Apr-19 00:00:00.0000, 1.634992183680683E+07, -5.510955048395767E+08, 2.004092587823665E+07,
2460791.500000000, A.D. 2025-Apr-26 00:00:00.0000, 2.490777560240862E+07, -5.506403698260556E+08, 1.971808983684602E+07,
2460798.500000000, A.D. 2025-May-03 00:00:00.0000, 3.345843019268116E+07, -5.500259645895320E+08, 1.938954894101286E+07,
2460805.500000000, A.D. 2025-May-10 00:00:00.0000, 4.199940028858495E+07, -5.492523161515503E+08, 1.905539313515744E+07,
2460812.500000000, A.D. 2025-May-17 00:00:00.0000, 5.052819665526512E+07, -5.483194758962624E+08, 1.871571336797389E+07,
2460819.500000000, A.D. 2025-May-24 00:00:00.0000, 5.904232603702401E+07, -5.472275200941406E+08, 1.837060156400868E+07,
2460826.500000000, A.D. 2025-May-31 00:00:00.0000, 6.753929167735100E+07, -5.459765502999873E+08, 1.802015055009684E+07,
2460833.500000000, A.D. 2025-Jun-07 00:00:00.0000, 7.601659406358595E+07, -5.445666924201055E+08, 1.766445407183245E+07,
2460840.500000000, A.D. 2025-Jun-14 00:00:00.0000, 8.447172953226192E+07, -5.429980951150990E+08, 1.730360706238976E+07,
2460847.500000000, A.D. 2025-Jun-21 00:00:00.0000, 9.290218795278780E+07, -5.412709308093586E+08, 1.693770578467402E+07,
2460854.500000000, A.D. 2025-Jun-28 00:00:00.0000, 1.013054526186364E+08, -5.393853975431616E+08, 1.656684770413151E+07,
2460861.500000000, A.D. 2025-Jul-05 00:00:00.0000, 1.096790008297464E+08, -5.373417195119604E+08, 1.619113140771401E+07,
2460868.500000000, A.D. 2025-Jul-12 00:00:00.0000, 1.180203039752211E+08, -5.351401470986637E+08, 1.581065661255008E+07,
2460875.500000000, A.D. 2025-Jul-19 00:00:00.0000, 1.263268273060861E+08, -5.327809569739656E+08, 1.542552420002472E+07,
2460882.500000000, A.D. 2025-Jul-26 00:00:00.0000, 1.345960296084358E+08, -5.302644523211218E+08, 1.503583625146309E+07,
2460889.500000000, A.D. 2025-Aug-02 00:00:00.0000, 1.428253628429249E+08, -5.275909631633275E+08, 1.464169608126092E+07,
2460896.500000000, A.D. 2025-Aug-09 00:00:00.0000, 1.510122717747720E+08, -5.247608468081591E+08, 1.424320826421380E+07,
2460903.500000000, A.D. 2025-Aug-16 00:00:00.0000, 1.591541936721464E+08, -5.217744884723303E+08, 1.384047864496002E+07,
2460910.500000000, A.D. 2025-Aug-23 00:00:00.0000, 1.672485583665106E+08, -5.186323020706895E+08, 1.343361430427381E+07,
2460917.500000000, A.D. 2025-Aug-30 00:00:00.0000, 1.752927890046081E+08, -5.153347304561676E+08, 1.302272351068136E+07,
2460924.500000000, A.D. 2025-Sep-06 00:00:00.0000, 1.832843020743226E+08, -5.118822441110651E+08, 1.260791586951512E+07,
2460931.500000000, A.D. 2025-Sep-13 00:00:00.0000, 1.912205050338195E+08, -5.082753407724212E+08, 1.218930261993396E+07,
2460938.500000000, A.D. 2025-Sep-20 00:00:00.0000, 1.990987948179209E+08, -5.045145476353386E+08, 1.176699664543152E+07,
2460945.500000000, A.D. 2025-Sep-27 00:00:00.0000, 2.069165582814680E+08, -5.006004230229279E+08, 1.134111235521859E+07,
2460952.500000000, A.D. 2025-Oct-04 00:00:00.0000, 2.146711725639938E+08, -4.965335569842764E+08, 1.091176566572443E+07,
2460959.500000000, A.D. 2025-Oct-11 00:00:00.0000, 2.223600050028901E+08, -4.923145717638250E+08, 1.047907403953987E+07,
2460966.500000000, A.D. 2025-Oct-18 00:00:00.0000, 2.299804128796052E+08, -4.879441224167441E+08, 1.004315653338715E+07,
2460973.500000000, A.D. 2025-Oct-25 00:00:00.0000, 2.375297431392871E+08, -4.834228975593607E+08, 9.604133843161166E+06,
2460980.500000000, A.D. 2025-Nov-01 00:00:00.0000, 2.450053321241929E+08, -4.787516202390283E+08, 9.162128343543679E+06,
2460987.500000000, A.D. 2025-Nov-08 00:00:00.0000, 2.524045053564166E+08, -4.739310489545343E+08, 8.717264116232038E+06,
2460994.500000000, A.D. 2025-Nov-15 00:00:00.0000, 2.597245775191206E+08, -4.689619788852887E+08, 8.269666948177904E+06,
2461001.500000000, A.D. 2025-Nov-22 00:00:00.0000, 2.669628530406024E+08, -4.638452431092846E+08, 7.819464280672610E+06,
2461008.500000000, A.D. 2025-Nov-29 00:00:00.0000, 2.741166271296127E+08, -4.585817126754792E+08, 7.366785215927094E+06,
2461015.500000000, A.D. 2025-Dec-06 00:00:00.0000, 2.811831849856429E+08, -4.531722956672156E+08, 6.911760778741062E+06,
2461022.500000000, A.D. 2025-Dec-13 00:00:00.0000, 2.881597996187372E+08, -4.476179386266893E+08, 6.454524117791593E+06,
2461029.500000000, A.D. 2025-Dec-20 00:00:00.0000, 2.950437317736491E+08, -4.419196293167777E+08, 5.995210409534514E+06,
2461036.500000000, A.D. 2025-Dec-27 00:00:00.0000, 3.018322308866857E+08, -4.360783982292311E+08, 5.533956774904162E+06,
2461043.500000000, A.D. 2026-Jan-03 00:00:00.0000, 3.085225356178547E+08, -4.300953194552639E+08, 5.070902292348355E+06,
2461050.500000000, A.D. 2026-Jan-10 00:00:00.0000, 3.151118740695618E+08, -4.239715115975186E+08, 4.606188041669667E+06,
2461057.500000000, A.D. 2026-Jan-17 00:00:00.0000, 3.215974639256677E+08, -4.177081388145610E+08, 4.139957149873346E+06,
2461064.500000000, A.D. 2026-Jan-24 00:00:00.0000, 3.279765125899612E+08, -4.113064119742838E+08, 3.672354833726138E+06,
2461071.500000000, A.D. 2026-Jan-31 00:00:00.0000, 3.342462173487498E+08, -4.047675899220581E+08, 3.203528436221927E+06,
2461078.500000000, A.D. 2026-Feb-07 00:00:00.0000, 3.404037656209111E+08, -3.980929809189866E+08, 2.733627446552962E+06,
2461085.500000000, A.D. 2026-Feb-14 00:00:00.0000, 3.464463355513144E+08, -3.912839442637643E+08, 2.262803479086280E+06,
2461092.500000000, A.D. 2026-Feb-21 00:00:00.0000, 3.523710973389473E+08, -3.843418915204368E+08, 1.791210223036200E+06,
2461099.500000000, A.D. 2026-Feb-28 00:00:00.0000, 3.581752142186798E+08, -3.772682861993642E+08, 1.319003556759298E+06,
2461106.500000000, A.D. 2026-Mar-07 00:00:00.0000, 3.638558410406833E+08, -3.700646438423933E+08, 8.463418561961949E+05,
2461113.500000000, A.D. 2026-Mar-14 00:00:00.0000, 3.694101232249833E+08, -3.627325348447178E+08, 3.733860521653593E+05,
2461120.500000000, A.D. 2026-Mar-21 00:00:00.0000, 3.748351978765794E+08, -3.552735871147297E+08, -9.970049022814631E+04,
2461127.500000000, A.D. 2026-Mar-28 00:00:00.0000, 3.801281950548176E+08, -3.476894875429650E+08, -5.727520016679466E+05,
2461134.500000000, A.D. 2026-Apr-04 00:00:00.0000, 3.852862385963058E+08, -3.399819832455106E+08, -1.045600271679997E+06,
2461141.500000000, A.D. 2026-Apr-11 00:00:00.0000, 3.903064467683580E+08, -3.321528829412470E+08, -1.518074599153832E+06,
2461148.500000000, A.D. 2026-Apr-18 00:00:00.0000, 3.951859329155806E+08, -3.242040584688900E+08, -1.990001745435417E+06,
2461155.500000000, A.D. 2026-Apr-25 00:00:00.0000, 3.999218061490020E+08, -3.161374464283186E+08, -2.461205892945349E+06,
2461162.500000000, A.D. 2026-May-02 00:00:00.0000, 4.045111721120560E+08, -3.079550499748234E+08, -2.931508614553988E+06,
2461169.500000000, A.D. 2026-May-09 00:00:00.0000, 4.089511339516072E+08, -2.996589408310630E+08, -3.400728870611548E+06,
2461176.500000000, A.D. 2026-May-16 00:00:00.0000, 4.132387938759251E+08, -2.912512613763811E+08, -3.868683057093531E+06,
2461183.500000000, A.D. 2026-May-23 00:00:00.0000, 4.173712553563133E+08, -2.827342257892425E+08, -4.335185026133940E+06,
2461190.500000000, A.D. 2026-May-30 00:00:00.0000, 4.213456238991184E+08, -2.741101199222840E+08, -4.800045862299681E+06,
2461197.500000000, A.D. 2026-Jun-06 00:00:00.0000, 4.251590060746368E+08, -2.653813031822932E+08, -5.263073653340489E+06,
2461204.500000000, A.D. 2026-Jun-13 00:00:00.0000, 4.288085104721230E+08, -2.565502122132790E+08, -5.724073575860634E+06,
2461211.500000000, A.D. 2026-Jun-20 00:00:00.0000, 4.322912500842863E+08, -2.476193634532990E+08, -6.182848011290550E+06,
2461218.500000000, A.D. 2026-Jun-27 00:00:00.0000, 4.356043444279116E+08, -2.385913549021325E+08, -6.639196564637467E+06,
2461225.500000000, A.D. 2026-Jul-04 00:00:00.0000, 4.387449214053370E+08, -2.294688678717255E+08, -7.092916049868867E+06,
2461232.500000000, A.D. 2026-Jul-11 00:00:00.0000, 4.417101191655396E+08, -2.202546688479165E+08, -7.543800476563543E+06,
2461239.500000000, A.D. 2026-Jul-18 00:00:00.0000, 4.444970880624852E+08, -2.109516114339473E+08, -7.991641044803500E+06,
2461246.500000000, A.D. 2026-Jul-25 00:00:00.0000, 4.471029927402073E+08, -2.015626383690062E+08, -8.436226150886491E+06,
2461253.500000000, A.D. 2026-Aug-01 00:00:00.0000, 4.495250143975679E+08, -1.920907836656065E+08, -8.877341412766621E+06,
2461260.500000000, A.D. 2026-Aug-08 00:00:00.0000, 4.517603534519770E+08, -1.825391748967197E+08, -9.314769738429293E+06,
2461267.500000000, A.D. 2026-Aug-15 00:00:00.0000, 4.538062330214980E+08, -1.729110351761866E+08, -9.748291438970476E+06,
2461274.500000000, A.D. 2026-Aug-22 00:00:00.0000, 4.556599024700097E+08, -1.632096836046807E+08, -1.017768421713183E+07,
2461281.500000000, A.D. 2026-Aug-29 00:00:00.0000, 4.573186387325765E+08, -1.534385355485824E+08, -1.060272293386995E+07,
2461288.500000000, A.D. 2026-Sep-05 00:00:00.0000, 4.587797475586412E+08, -1.436011056141306E+08, -1.102317958352742E+07,
$$EOE